[
  {
    "title": "Cachorrinho",
    "zip": "https://raw.githubusercontent.com/guiimenezestech/mipinte_repo/main/packs/cachorrinho.zip",
    "thumb": "https://raw.githubusercontent.com/guiimenezestech/mipinte_repo/main/thumbs/cachorrinho.png",
    "category": "Animais",
    "version": "1.0.0"
  },
  {
    "title": "Gatinho",
    "zip": "https://raw.githubusercontent.com/guiimenezestech/mipinte_repo/main/packs/gatinho.zip",
    "thumb": "https://raw.githubusercontent.com/guiimenezestech/mipinte_repo/main/thumbs/gatinho.png",
    "category": "Animais",
    "version": "1.0.0"
  },
  {
    "title": "Macaquinho",
    "zip": "https://raw.githubusercontent.com/guiimenezestech/mipinte_repo/main/packs/macaquinho.zip",
    "thumb": "https://raw.githubusercontent.com/guiimenezestech/mipinte_repo/main/thumbs/macaquinho.png",
    "category": "Animais",
    "version": "1.0.0"
  },
  {
    "title": "Fazendinha 1",
    "zip": "https://raw.githubusercontent.com/guiimenezestech/mipinte_repo/main/packs/fazendinha_1.zip",
    "thumb": "https://raw.githubusercontent.com/guiimenezestech/mipinte_repo/main/thumbs/fazendinha_1.png",
    "category": "Fazenda",
    "version": "1.0.0"
  },
  {
    "title": "Selva 1",
    "zip": "https://raw.githubusercontent.com/guiimenezestech/mipinte_repo/main/packs/selva_1.zip",
    "thumb": "https://raw.githubusercontent.com/guiimenezestech/mipinte_repo/main/thumbs/selva_1.png",
    "category": "Selva",
    "version": "1.0.0"
  },
  {
    "title": "Borboleta",
    "zip": "https://raw.githubusercontent.com/guiimenezestech/mipinte_repo/main/packs/borboleta.zip",
    "thumb": "https://raw.githubusercontent.com/guiimenezestech/mipinte_repo/main/thumbs/borboleta.png",
    "category": "Animais",
    "version": "1.0.0"
  },
  {
    "title": "Frozen: Ana",
    "zip": "https://raw.githubusercontent.com/guiimenezestech/mipinte_repo/main/packs/ana.zip",
    "thumb": "https://raw.githubusercontent.com/guiimenezestech/mipinte_repo/main/thumbs/ana.png",
    "categories": ["Frozen", "Ana", "Princesa", "Disney"],
    "version": "1.0.0"
  },
  {
    "title": "Adão e Eva: fruto proibido",
    "zip": "https://raw.githubusercontent.com/guiimenezestech/mipinte_repo/main/packs/adao_eva.zip",
    "thumb": "https://raw.githubusercontent.com/guiimenezestech/mipinte_repo/main/thumbs/adao_eva.png",
    "category": "Bíblico",
    "version": "1.0.0"
  },
  {
    "title": "Dininho",
    "zip": "https://raw.githubusercontent.com/guiimenezestech/mipinte_repo/main/packs/dininho.zip",
    "thumb": "https://raw.githubusercontent.com/guiimenezestech/mipinte_repo/main/thumbs/dininho.png",
    "category": "Dinossauro",
    "version": "1.0.0"
  },
  {
    "title": "Dino",
    "zip": "https://raw.githubusercontent.com/guiimenezestech/mipinte_repo/main/packs/dino.zip",
    "thumb": "https://raw.githubusercontent.com/guiimenezestech/mipinte_repo/main/thumbs/dino.png",
    "category": "Dinossauro",
    "version": "1.0.0"
  },
  {
    "title": "Arca de Noé",
    "zip": "https://raw.githubusercontent.com/guiimenezestech/mipinte_repo/main/packs/arca_de_noe.zip",
    "thumb": "https://raw.githubusercontent.com/guiimenezestech/mipinte_repo/main/thumbs/arca_de_noe.png",
    "category": "Bíblico",
    "version": "1.0.0"
  },
  {
    "title": "Arca de Noé - Arco-íris",
    "zip": "https://raw.githubusercontent.com/guiimenezestech/mipinte_repo/main/packs/arca_noe_2.zip",
    "thumb": "https://raw.githubusercontent.com/guiimenezestech/mipinte_repo/main/thumbs/arca_noe_2.png",
    "category": "Bíblico",
    "version": "1.0.0"
  },
  {
    "title": "A Pequena Sereia: Ariel",
    "zip": "https://raw.githubusercontent.com/guiimenezestech/mipinte_repo/main/packs/ariel_1.zip",
    "thumb": "https://raw.githubusercontent.com/guiimenezestech/mipinte_repo/main/thumbs/ariel_1.png",
    "categories": ["Seria", "Disney", "Princesa"],
    "version": "1.0.0"
  },
  {
    "title": "Stitch",
    "zip": "https://raw.githubusercontent.com/guiimenezestech/mipinte_repo/main/packs/stitch.zip",
    "thumb": "https://raw.githubusercontent.com/guiimenezestech/mipinte_repo/main/thumbs/stitch.png",
    "categories": ["Stitch", "Disney"],
    "version": "1.0.0"
  }
]
